[{"OBJECT_NAME":"TIANMU-1 07","OBJECT_ID":"2023-101A","EPOCH":"2026-03-06T13:47:20.454720","MEAN_MOTION":15.29118809,"ECCENTRICITY":0.00046097,"INCLINATION":97.2728,"RA_OF_ASC_NODE":118.5929,"ARG_OF_PERICENTER":142.4105,"MEAN_ANOMALY":217.7458,"EPHEMERIS_TYPE":0,"CLASSIFICATION_TYPE":"U","NORAD_CAT_ID":57399,"ELEMENT_SET_NO":999,"REV_AT_EPOCH":14596,"BSTAR":0.00029794732,"MEAN_MOTION_DOT":8.352e-5,"MEAN_MOTION_DDOT":0},{"OBJECT_NAME":"STARLINK-30437","OBJECT_ID":"2023-156J","EPOCH":"2026-03-09T06:24:08.785440","MEAN_MOTION":15.30194159,"ECCENTRICITY":0.0001127,"INCLINATION":53.1603,"RA_OF_ASC_NODE":80.1618,"ARG_OF_PERICENTER":92.6776,"MEAN_ANOMALY":267.4354,"EPHEMERIS_TYPE":0,"CLASSIFICATION_TYPE":"U","NORAD_CAT_ID":58036,"ELEMENT_SET_NO":999,"REV_AT_EPOCH":13620,"BSTAR":-9.07274e-6,"MEAN_MOTION_DOT":-6.28e-6,"MEAN_MOTION_DDOT":0}]
